[{"OBJECT_NAME":"ICEYE-X4","OBJECT_ID":"2019-038D","EPOCH":"2026-03-09T23:53:58.416000","MEAN_MOTION":15.26985132,"ECCENTRICITY":0.00122769,"INCLINATION":97.8888,"RA_OF_ASC_NODE":96.1923,"ARG_OF_PERICENTER":293.9914,"MEAN_ANOMALY":66.0038,"EPHEMERIS_TYPE":0,"CLASSIFICATION_TYPE":"U","NORAD_CAT_ID":44390,"ELEMENT_SET_NO":999,"REV_AT_EPOCH":36665,"BSTAR":0.00049915294,"MEAN_MOTION_DOT":0.00013179,"MEAN_MOTION_DDOT":0},{"OBJECT_NAME":"STARLINK-31805","OBJECT_ID":"2024-090R","EPOCH":"2026-03-08T09:03:50.440032","MEAN_MOTION":15.27574915,"ECCENTRICITY":8.21e-5,"INCLINATION":42.9984,"RA_OF_ASC_NODE":190.5453,"ARG_OF_PERICENTER":280.8207,"MEAN_ANOMALY":79.2552,"EPHEMERIS_TYPE":0,"CLASSIFICATION_TYPE":"U","NORAD_CAT_ID":59745,"ELEMENT_SET_NO":999,"REV_AT_EPOCH":10324,"BSTAR":-3.187108e-6,"MEAN_MOTION_DOT":-3.49e-6,"MEAN_MOTION_DDOT":0}]
